{"type": "FeatureCollection", "features": [ {"type": "Feature", "properties": {"norad_id": 66645, "name": "SHENZHOU-22", "group": "last-30-days", "lat": -13.076611140591027, "lon": -80.04995522589427, "alt_km": 395.17664848446293, "timestamp": "2025-12-26T03:50:10.806026+00:00", "meta": {"OBJECT_NAME": "SHENZHOU-22", "OBJECT_ID": "2025-272A", "EPOCH": "2025-12-25T12:33:15.160896", "MEAN_MOTION": 15.59679589, "ECCENTRICITY": 0.00083772, "INCLINATION": 41.4683, "RA_OF_ASC_NODE": 299.0697, "ARG_OF_PERICENTER": 143.3414, "MEAN_ANOMALY": 216.7999, "EPHEMERIS_TYPE": 0, "CLASSIFICATION_TYPE": "U", "NORAD_CAT_ID": 66645, "ELEMENT_SET_NO": 999, "REV_AT_EPOCH": 26598, "BSTAR": 0.00022529008, "MEAN_MOTION_DOT": 0.00018242, "MEAN_MOTION_DDOT": 0}, "tle": {"line1": "1 66645U 25272A   25359.52309214  .00018242  00000+0  22529-3 0  9994", "line2": "2 66645  41.4683 299.0697 0008377 143.3414 216.7999 15.59679589265989"}}, "geometry": {"type": "Point", "coordinates": [-80.04995522589427, -13.076611140591027]}}, {"type": "Feature", "properties": {"norad_id": 66647, "name": "COSMOS 2597 (RODNIK-S 22)", "group": "last-30-days", "lat": -38.230930037992756, "lon": -87.84046571454608, "alt_km": 1502.2571276918798, "timestamp": "2025-12-26T03:50:10.806036+00:00", "meta": {"OBJECT_NAME": "COSMOS 2597 (RODNIK-S 22)", "OBJECT_ID": "2025-273A", "EPOCH": "2025-12-25T20:18:37.087776", "MEAN_MOTION": 12.41952295, "ECCENTRICITY": 0.0007598, "INCLINATION": 82.4994, "RA_OF_ASC_NODE": 278.311, "ARG_OF_PERICENTER": 255.1322, "MEAN_ANOMALY": 104.8916, "EPHEMERIS_TYPE": 0, "CLASSIFICATION_TYPE": "U", "NORAD_CAT_ID": 66647, "ELEMENT_SET_NO": 999, "REV_AT_EPOCH": 376, "BSTAR": 0.00020445, "MEAN_MOTION_DOT": 3.8e-07, "MEAN_MOTION_DDOT": 0}, "tle": {"line1": "1 66647U 25273A   25359.84626259  .00000038  00000+0  20445-3 0  9992", "line2": "2 66647  82.4994 278.3110 0007598 255.1322 104.8916 12.41952295  3763"}}, "geometry": {"type": "Point", "coordinates": [-87.84046571454608, -38.230930037992756]}}, {"type": "Feature", "properties": {"norad_id": 66648, "name": "COSMOS 2598 (RODNIK-S 23)", "group": "last-30-days", "lat": 58.028515222110244, "lon": -69.72124117066494, "alt_km": 1492.636189002451, "timestamp": "2025-12-26T03:50:10.806051+00:00", "meta": {"OBJECT_NAME": "COSMOS 2598 (RODNIK-S 23)", "OBJECT_ID": "2025-273B", "EPOCH": "2025-12-25T19:47:41.824896", "MEAN_MOTION": 12.43233646, "ECCENTRICITY": 0.0008221, "INCLINATION": 82.5032, "RA_OF_ASC_NODE": 278.3095, "ARG_OF_PERICENTER": 205.659, "MEAN_ANOMALY": 154.4083, "EPHEMERIS_TYPE": 0, "CLASSIFICATION_TYPE": "U", "NORAD_CAT_ID": 66648, "ELEMENT_SET_NO": 999, "REV_AT_EPOCH": 376, "BSTAR": 0.00016545, "MEAN_MOTION_DOT": 3.3e-07, "MEAN_MOTION_DDOT": 0}, "tle": {"line1": "1 66648U 25273B   25359.82478964  .00000033  00000+0  16545-3 0  9990", "line2": "2 66648  82.5032 278.3095 0008221 205.6590 154.4083 12.43233646  3761"}}, "geometry": {"type": "Point", "coordinates": [-69.72124117066494, 58.028515222110244]}}, {"type": "Feature", "properties": {"norad_id": 66649, "name": "COSMOS 2599 (RODNIK-S 24)", "group": "last-30-days", "lat": -80.49571818580533, "lon": 149.98938052985199, "alt_km": 1504.443672222832, "timestamp": "2025-12-26T03:50:10.806061+00:00", "meta": {"OBJECT_NAME": "COSMOS 2599 (RODNIK-S 24)", "OBJECT_ID": "2025-273C", "EPOCH": "2025-12-25T20:36:48.203136", "MEAN_MOTION": 12.41152341, "ECCENTRICITY": 0.0006339, "INCLINATION": 82.505, "RA_OF_ASC_NODE": 278.3392, "ARG_OF_PERICENTER": 243.1045, "MEAN_ANOMALY": 116.9386, "EPHEMERIS_TYPE": 0, "CLASSIFICATION_TYPE": "U", "NORAD_CAT_ID": 66649, "ELEMENT_SET_NO": 999, "REV_AT_EPOCH": 376, "BSTAR": 0.00024122, "MEAN_MOTION_DOT": 4.2e-07, "MEAN_MOTION_DDOT": 0}, "tle": {"line1": "1 66649U 25273C   25359.85889124  .00000042  00000+0  24122-3 0  9998", "line2": "2 66649  82.5050 278.3392 0006339 243.1045 116.9386 12.41152341  3761"}}, "geometry": {"type": "Point", "coordinates": [149.98938052985199, -80.49571818580533]}}, {"type": "Feature", "properties": {"norad_id": 66650, "name": "BEE-1000", "group": "last-30-days", "lat": -45.27237496409967, "lon": -65.00535295590706, "alt_km": 602.2766843909303, "timestamp": "2025-12-26T03:50:10.806071+00:00", "meta": {"OBJECT_NAME": "BEE-1000", "OBJECT_ID": "2025-274A", "EPOCH": "2025-12-25T18:22:56.172288", "MEAN_MOTION": 14.91704578, "ECCENTRICITY": 0.0011154, "INCLINATION": 97.7405, "RA_OF_ASC_NODE": 286.7153, "ARG_OF_PERICENTER": 203.6875, "MEAN_ANOMALY": 156.3831, "EPHEMERIS_TYPE": 0, "CLASSIFICATION_TYPE": "U", "NORAD_CAT_ID": 66650, "ELEMENT_SET_NO": 999, "REV_AT_EPOCH": 434, "BSTAR": 0.00017801, "MEAN_MOTION_DOT": 1.737e-05, "MEAN_MOTION_DDOT": 0}, "tle": {"line1": "1 66650U 25274A   25359.76592792  .00001737  00000+0  17801-3 0  9991", "line2": "2 66650  97.7405 286.7153 0011154 203.6875 156.3831 14.91704578  4346"}}, "geometry": {"type": "Point", "coordinates": [-65.00535295590706, -45.27237496409967]}}, {"type": "Feature", "properties": {"norad_id": 66651, "name": "2025-274B", "group": "last-30-days", "lat": -32.7441424410147, "lon": -67.87629688821006, "alt_km": 602.8960929126497, "timestamp": "2025-12-26T03:50:10.806082+00:00", "meta": {"OBJECT_NAME": "2025-274B", "OBJECT_ID": "2025-274B", "EPOCH": "2025-12-25T18:19:35.219712", "MEAN_MOTION": 14.91892174, "ECCENTRICITY": 0.0011346, "INCLINATION": 97.7401, "RA_OF_ASC_NODE": 286.7168, "ARG_OF_PERICENTER": 201.7982, "MEAN_ANOMALY": 158.2756, "EPHEMERIS_TYPE": 0, "CLASSIFICATION_TYPE": "U", "NORAD_CAT_ID": 66651, "ELEMENT_SET_NO": 999, "REV_AT_EPOCH": 434, "BSTAR": 0.00042786, "MEAN_MOTION_DOT": 4.275e-05, "MEAN_MOTION_DDOT": 0}, "tle": {"line1": "1 66651U 25274B   25359.76360208  .00004275  00000+0  42786-3 0  9997", "line2": "2 66651  97.7401 286.7168 0011346 201.7982 158.2756 14.91892174  4347"}}, "geometry": {"type": "Point", "coordinates": [-67.87629688821006, -32.7441424410147]}}, {"type": "Feature", "properties": {"norad_id": 66652, "name": "2025-274C", "group": "last-30-days", "lat": -20.695067173879753, "lon": -69.94191982005438, "alt_km": 602.113167200062, "timestamp": "2025-12-26T03:50:10.806092+00:00", "meta": {"OBJECT_NAME": "2025-274C", "OBJECT_ID": "2025-274C", "EPOCH": "2025-12-25T18:16:20.418816", "MEAN_MOTION": 14.91976974, "ECCENTRICITY": 0.0010874, "INCLINATION": 97.7406, "RA_OF_ASC_NODE": 286.7213, "ARG_OF_PERICENTER": 208.6516, "MEAN_ANOMALY": 151.4107, "EPHEMERIS_TYPE": 0, "CLASSIFICATION_TYPE": "U", "NORAD_CAT_ID": 66652, "ELEMENT_SET_NO": 999, "REV_AT_EPOCH": 434, "BSTAR": 0.00035574, "MEAN_MOTION_DOT": 3.552e-05, "MEAN_MOTION_DDOT": 0}, "tle": {"line1": "1 66652U 25274C   25359.76134744  .00003552  00000+0  35574-3 0  9996", "line2": "2 66652  97.7406 286.7213 0010874 208.6516 151.4107 14.91976974  4344"}}, "geometry": {"type": "Point", "coordinates": [-69.94191982005438, -20.695067173879753]}}, {"type": "Feature", "properties": {"norad_id": 66653, "name": "2025-274D", "group": "last-30-days", "lat": -20.367176407141702, "lon": -69.99323853071887, "alt_km": 602.9692152775006, "timestamp": "2025-12-26T03:50:10.806101+00:00", "meta": {"OBJECT_NAME": "2025-274D", "OBJECT_ID": "2025-274D", "EPOCH": "2025-12-25T19:52:49.505664", "MEAN_MOTION": 14.91967104, "ECCENTRICITY": 0.0011864, "INCLINATION": 97.7404, "RA_OF_ASC_NODE": 286.7868, "ARG_OF_PERICENTER": 205.0236, "MEAN_ANOMALY": 155.0409, "EPHEMERIS_TYPE": 0, "CLASSIFICATION_TYPE": "U", "NORAD_CAT_ID": 66653, "ELEMENT_SET_NO": 999, "REV_AT_EPOCH": 435, "BSTAR": 0.00026997, "MEAN_MOTION_DOT": 2.682e-05, "MEAN_MOTION_DDOT": 0}, "tle": {"line1": "1 66653U 25274D   25359.82835076  .00002682  00000+0  26997-3 0  9992", "line2": "2 66653  97.7404 286.7868 0011864 205.0236 155.0409 14.91967104  4350"}}, "geometry": {"type": "Point", "coordinates": [-69.99323853071887, -20.367176407141702]}}, {"type": "Feature", "properties": {"norad_id": 66654, "name": "JACK E", "group": "last-30-days", "lat": -2.1559985158453094, "lon": -72.58541600171931, "alt_km": 602.1847396134654, "timestamp": "2025-12-26T03:50:10.806112+00:00", "meta": {"OBJECT_NAME": "JACK E", "OBJECT_ID": "2025-274E", "EPOCH": "2025-12-25T18:11:22.631712", "MEAN_MOTION": 14.9215245, "ECCENTRICITY": 0.0012397, "INCLINATION": 97.7406, "RA_OF_ASC_NODE": 286.7263, "ARG_OF_PERICENTER": 206.9936, "MEAN_ANOMALY": 153.064, "EPHEMERIS_TYPE": 0, "CLASSIFICATION_TYPE": "U", "NORAD_CAT_ID": 66654, "ELEMENT_SET_NO": 999, "REV_AT_EPOCH": 434, "BSTAR": 0.00032963, "MEAN_MOTION_DOT": 3.303e-05, "MEAN_MOTION_DDOT": 0}, "tle": {"line1": "1 66654U 25274E   25359.75790083  .00003303  00000+0  32963-3 0  9994", "line2": "2 66654  97.7406 286.7263 0012397 206.9936 153.0640 14.92152450  4346"}}, "geometry": {"type": "Point", "coordinates": [-72.58541600171931, -2.1559985158453094]}}, {"type": "Feature", "properties": {"norad_id": 66655, "name": "2025-274F", "group": "last-30-days", "lat": -43.864114339083486, "lon": -65.40242916803383, "alt_km": 597.982354290737, "timestamp": "2025-12-26T03:50:10.806126+00:00", "meta": {"OBJECT_NAME": "2025-274F", "OBJECT_ID": "2025-274F", "EPOCH": "2025-12-25T18:22:19.797024", "MEAN_MOTION": 14.91199318, "ECCENTRICITY": 0.0004455, "INCLINATION": 97.7336, "RA_OF_ASC_NODE": 286.7062, "ARG_OF_PERICENTER": 336.6899, "MEAN_ANOMALY": 23.4117, "EPHEMERIS_TYPE": 0, "CLASSIFICATION_TYPE": "U", "NORAD_CAT_ID": 66655, "ELEMENT_SET_NO": 999, "REV_AT_EPOCH": 434, "BSTAR": 1.0625e-05, "MEAN_MOTION_DOT": 5.1e-07, "MEAN_MOTION_DDOT": 0}, "tle": {"line1": "1 66655U 25274F   25359.76550691  .00000051  00000+0  10625-4 0  9994", "line2": "2 66655  97.7336 286.7062 0004455 336.6899  23.4117 14.91199318  4343"}}, "geometry": {"type": "Point", "coordinates": [-65.40242916803383, -43.864114339083486]}}]}